{
  "type": "FeatureCollection",
  "features": [
    {
      "type": "Feature",
      "properties": {
        "norad_id": 33805,
        "name": "COSMOS 2251 DEB",
        "group": "cosmos-2251-debris",
        "lat": 6.515438802159284,
        "lon": -45.124850041587365,
        "alt_km": 732.0935013405851,
        "timestamp": "2025-12-11T20:41:15.473651+00:00",
        "meta_object_name": "COSMOS 2251 DEB",
        "meta_object_id": "1993-036AW",
        "meta_epoch": "2025-12-11T07:28:51.005280",
        "meta_mean_motion": 14.57851284,
        "meta_eccentricity": 0.00602561,
        "meta_inclination": 74.0306,
        "meta_ra_of_asc_node": 314.0474,
        "meta_arg_of_pericenter": 143.4484,
        "meta_mean_anomaly": 217.0816,
        "meta_ephemeris_type": 0,
        "meta_classification_type": "U",
        "meta_norad_cat_id": 33805,
        "meta_element_set_no": 999,
        "meta_rev_at_epoch": 89206,
        "meta_bstar": 0.00040023686,
        "meta_mean_motion_dot": 1.849e-05,
        "meta_mean_motion_ddot": 0,
        "tle_line1": "1 33805U 93036AW  25345.31170145  .00001849  00000+0  40024-3 0  9995",
        "tle_line2": "2 33805  74.0306 314.0474 0060256 143.4484 217.0816 14.57851284892066"
      },
      "geometry": {
        "type": "Point",
        "coordinates": [
          -45.124850041587365,
          6.515438802159284
        ]
      }
    },
    {
      "type": "Feature",
      "properties": {
        "norad_id": 33811,
        "name": "COSMOS 2251 DEB",
        "group": "cosmos-2251-debris",
        "lat": 73.3876612774973,
        "lon": 20.894403327999242,
        "alt_km": 533.0906979998899,
        "timestamp": "2025-12-11T20:41:15.473662+00:00",
        "meta_object_name": "COSMOS 2251 DEB",
        "meta_object_id": "1993-036BC",
        "meta_epoch": "2025-12-11T14:26:50.079264",
        "meta_mean_motion": 15.05212469,
        "meta_eccentricity": 0.00306375,
        "meta_inclination": 73.8382,
        "meta_ra_of_asc_node": 305.0158,
        "meta_arg_of_pericenter": 25.695,
        "meta_mean_anomaly": 91.7777,
        "meta_ephemeris_type": 0,
        "meta_classification_type": "U",
        "meta_norad_cat_id": 33811,
        "meta_element_set_no": 999,
        "meta_rev_at_epoch": 90001,
        "meta_bstar": 0.0016988043,
        "meta_mean_motion_dot": 0.00024547,
        "meta_mean_motion_ddot": 0,
        "tle_line1": "1 33811U 93036BC  25345.60196851  .00024547  00000+0  16988-2 0  9997",
        "tle_line2": "2 33811  73.8382 305.0158 0030637  25.6950  91.7777 15.05212469900010"
      },
      "geometry": {
        "type": "Point",
        "coordinates": [
          20.894403327999242,
          73.3876612774973
        ]
      }
    },
    {
      "type": "Feature",
      "properties": {
        "norad_id": 33815,
        "name": "COSMOS 2251 DEB",
        "group": "cosmos-2251-debris",
        "lat": 61.75252221243147,
        "lon": -33.966223635273614,
        "alt_km": 507.86316189227364,
        "timestamp": "2025-12-11T20:41:15.473672+00:00",
        "meta_object_name": "COSMOS 2251 DEB",
        "meta_object_id": "1993-036BG",
        "meta_epoch": "2025-12-10T00:34:36.803712",
        "meta_mean_motion": 15.1696459,
        "meta_eccentricity": 0.00027751,
        "meta_inclination": 73.9523,
        "meta_ra_of_asc_node": 182.2836,
        "meta_arg_of_pericenter": 231.9732,
        "meta_mean_anomaly": 286.9539,
        "meta_ephemeris_type": 0,
        "meta_classification_type": "U",
        "meta_norad_cat_id": 33815,
        "meta_element_set_no": 999,
        "meta_rev_at_epoch": 88329,
        "meta_bstar": 0.0073023687,
        "meta_mean_motion_dot": 0.00147157,
        "meta_mean_motion_ddot": 0,
        "tle_line1": "1 33815U 93036BG  25344.02403708  .00147157  00000+0  73024-2 0  9995",
        "tle_line2": "2 33815  73.9523 182.2836 0002775 231.9732 286.9539 15.16964590883297"
      },
      "geometry": {
        "type": "Point",
        "coordinates": [
          -33.966223635273614,
          61.75252221243147
        ]
      }
    },
    {
      "type": "Feature",
      "properties": {
        "norad_id": 33816,
        "name": "COSMOS 2251 DEB",
        "group": "cosmos-2251-debris",
        "lat": 40.279235052011764,
        "lon": 121.05580371046533,
        "alt_km": 907.4889420465306,
        "timestamp": "2025-12-11T20:41:15.473682+00:00",
        "meta_object_name": "COSMOS 2251 DEB",
        "meta_object_id": "1993-036BH",
        "meta_epoch": "2025-12-11T11:47:39.911424",
        "meta_mean_motion": 13.81781196,
        "meta_eccentricity": 0.02647437,
        "meta_inclination": 73.8948,
        "meta_ra_of_asc_node": 107.5116,
        "meta_arg_of_pericenter": 120.6874,
        "meta_mean_anomaly": 242.0628,
        "meta_ephemeris_type": 0,
        "meta_classification_type": "U",
        "meta_norad_cat_id": 33816,
        "meta_element_set_no": 999,
        "meta_rev_at_epoch": 84656,
        "meta_bstar": 0.00078196,
        "meta_mean_motion_dot": 1.071e-05,
        "meta_mean_motion_ddot": 0,
        "tle_line1": "1 33816U 93036BH  25345.49143416  .00001071  00000+0  78196-3 0  9995",
        "tle_line2": "2 33816  73.8948 107.5116 0264743 120.6874 242.0628 13.81781196846565"
      },
      "geometry": {
        "type": "Point",
        "coordinates": [
          121.05580371046533,
          40.279235052011764
        ]
      }
    },
    {
      "type": "Feature",
      "properties": {
        "norad_id": 33818,
        "name": "COSMOS 2251 DEB",
        "group": "cosmos-2251-debris",
        "lat": 18.203453785312853,
        "lon": 173.4435497840243,
        "alt_km": 543.23042413655,
        "timestamp": "2025-12-11T20:41:15.473693+00:00",
        "meta_object_name": "COSMOS 2251 DEB",
        "meta_object_id": "1993-036BK",
        "meta_epoch": "2025-12-10T23:04:43.713984",
        "meta_mean_motion": 15.12257187,
        "meta_eccentricity": 0.0027544,
        "meta_inclination": 74.0759,
        "meta_ra_of_asc_node": 169.9158,
        "meta_arg_of_pericenter": 159.4021,
        "meta_mean_anomaly": 0.1181,
        "meta_ephemeris_type": 0,
        "meta_classification_type": "U",
        "meta_norad_cat_id": 33818,
        "meta_element_set_no": 999,
        "meta_rev_at_epoch": 89835,
        "meta_bstar": 0.0031578,
        "meta_mean_motion_dot": 0.00055504,
        "meta_mean_motion_ddot": 0,
        "tle_line1": "1 33818U 93036BK  25344.96161706  .00055504  00000+0  31578-2 0  9992",
        "tle_line2": "2 33818  74.0759 169.9158 0027544 159.4021   0.1181 15.12257187898353"
      },
      "geometry": {
        "type": "Point",
        "coordinates": [
          173.4435497840243,
          18.203453785312853
        ]
      }
    },
    {
      "type": "Feature",
      "properties": {
        "norad_id": 33819,
        "name": "COSMOS 2251 DEB",
        "group": "cosmos-2251-debris",
        "lat": 34.48777538966641,
        "lon": -137.33398093096514,
        "alt_km": 730.4920713704751,
        "timestamp": "2025-12-11T20:41:15.473703+00:00",
        "meta_object_name": "COSMOS 2251 DEB",
        "meta_object_id": "1993-036BL",
        "meta_epoch": "2025-12-11T15:38:00.500352",
        "meta_mean_motion": 14.32216319,
        "meta_eccentricity": 0.00890647,
        "meta_inclination": 74.1789,
        "meta_ra_of_asc_node": 211.8143,
        "meta_arg_of_pericenter": 73.4724,
        "meta_mean_anomaly": 317.9213,
        "meta_ephemeris_type": 0,
        "meta_classification_type": "U",
        "meta_norad_cat_id": 33819,
        "meta_element_set_no": 999,
        "meta_rev_at_epoch": 87480,
        "meta_bstar": 0.00093001561,
        "meta_mean_motion_dot": 2.595e-05,
        "meta_mean_motion_ddot": 0,
        "tle_line1": "1 33819U 93036BL  25345.65139468  .00002595  00000+0  93002-3 0  9993",
        "tle_line2": "2 33819  74.1789 211.8143 0089064  73.4724 317.9213 14.32216319874801"
      },
      "geometry": {
        "type": "Point",
        "coordinates": [
          -137.33398093096514,
          34.48777538966641
        ]
      }
    },
    {
      "type": "Feature",
      "properties": {
        "norad_id": 33821,
        "name": "COSMOS 2251 DEB",
        "group": "cosmos-2251-debris",
        "lat": 37.92115562100701,
        "lon": -48.19867590837704,
        "alt_km": 458.81830418273967,
        "timestamp": "2025-12-11T20:41:15.473713+00:00",
        "meta_object_name": "COSMOS 2251 DEB",
        "meta_object_id": "1993-036BN",
        "meta_epoch": "2025-12-11T12:12:08.834976",
        "meta_mean_motion": 15.25199649,
        "meta_eccentricity": 0.00521939,
        "meta_inclination": 74.0302,
        "meta_ra_of_asc_node": 145.4399,
        "meta_arg_of_pericenter": 179.4057,
        "meta_mean_anomaly": 180.7216,
        "meta_ephemeris_type": 0,
        "meta_classification_type": "U",
        "meta_norad_cat_id": 33821,
        "meta_element_set_no": 999,
        "meta_rev_at_epoch": 74982,
        "meta_bstar": 0.0021833345,
        "meta_mean_motion_dot": 0.00057397,
        "meta_mean_motion_ddot": 0,
        "tle_line1": "1 33821U 93036BN  25345.50843559  .00057397  00000+0  21833-2 0  9995",
        "tle_line2": "2 33821  74.0302 145.4399 0052193 179.4057 180.7216 15.25199649749829"
      },
      "geometry": {
        "type": "Point",
        "coordinates": [
          -48.19867590837704,
          37.92115562100701
        ]
      }
    }
  ]
}